ONEWEB-0320             
1 49190U 21083E   25326.08281810 -.00000217  00000+0 -58279-3 0  9998
2 49190  87.9199  16.6060 0001885  98.1507 261.9839 13.18686355202681
ONEWEB-0321             
1 49191U 21083F   25326.00609775 -.00000038  00000+0 -12417-3 0  9990
2 49191  87.9186 315.7522 0002146  84.4883 275.6495 13.20773013209486
ONEWEB-0322             
1 49192U 21083G   25326.10470425  .00000318  00000+0  83583-3 0  9991
2 49192  87.8991   1.4164 0002328  96.1535 263.9860 13.13469204203731
ONEWEB-0324             
1 49193U 21083H   25326.06879169  .00000038  00000+0  64469-4 0  9997
2 49193  87.9207  16.5858 0001738  93.4657 266.6674 13.18689240202707
ONEWEB-0325             
1 49194U 21083J   25326.07210635  .00000051  00000+0  97732-4 0  9990
2 49194  87.9210  16.6039 0001878  99.5135 260.6210 13.18684965202717
ONEWEB-0326             
1 49195U 21083K   25325.70769500  .00000028  00000+0  38359-4 0  9994
2 49195  87.9205  16.6637 0001651 106.6755 253.4558 13.18684016202658
ONEWEB-0327             
1 49196U 21083L   25326.08679779 -.00000310  00000+0 -81884-3 0  9991
2 49196  87.9196  16.6093 0001747 110.1606 249.9714 13.18686414202721
ONEWEB-0328             
1 49197U 21083M   25326.09454803  .00000442  00000+0  11744-2 0  9993
2 49197  87.9003   1.3636 0001762  92.3211 267.8120 13.13469773203715
